{"type": "FeatureCollection", "features": [ {"type": "Feature", "properties": {"norad_id": 32384, "name": "GPS BIIRM-5 (PRN 29)", "group": "gps-ops", "lat": -20.42444740097866, "lon": 116.14034783308928, "alt_km": 20124.835929470606, "timestamp": "2025-12-25T07:41:09.981932+00:00", "meta": {"OBJECT_NAME": "GPS BIIRM-5 (PRN 29)", "OBJECT_ID": "2007-062A", "EPOCH": "2025-12-24T04:33:25.319232", "MEAN_MOTION": 2.00549289, "ECCENTRICITY": 0.00313762, "INCLINATION": 55.1723, "RA_OF_ASC_NODE": 281.1867, "ARG_OF_PERICENTER": 162.3601, "MEAN_ANOMALY": 306.4071, "EPHEMERIS_TYPE": 0, "CLASSIFICATION_TYPE": "U", "NORAD_CAT_ID": 32384, "ELEMENT_SET_NO": 999, "REV_AT_EPOCH": 13200, "BSTAR": 0, "MEAN_MOTION_DOT": -2.2e-07, "MEAN_MOTION_DDOT": 0}, "tle": {"line1": "1 32384U 07062A   25358.18987638 -.00000022  00000+0  00000+0 0  9991", "line2": "2 32384  55.1723 281.1867 0031376 162.3601 306.4071  2.00549289132003"}}, "geometry": {"type": "Point", "coordinates": [116.14034783308928, -20.42444740097866]}}, {"type": "Feature", "properties": {"norad_id": 32711, "name": "GPS BIIRM-6 (PRN 07)", "group": "gps-ops", "lat": 40.268431298892445, "lon": -60.37447396418387, "alt_km": 20419.13028393019, "timestamp": "2025-12-25T07:41:09.981943+00:00", "meta": {"OBJECT_NAME": "GPS BIIRM-6 (PRN 07)", "OBJECT_ID": "2008-012A", "EPOCH": "2025-12-24T15:20:51.280224", "MEAN_MOTION": 2.00566104, "ECCENTRICITY": 0.02029745, "INCLINATION": 54.4784, "RA_OF_ASC_NODE": 156.898, "ARG_OF_PERICENTER": 245.0885, "MEAN_ANOMALY": 112.7759, "EPHEMERIS_TYPE": 0, "CLASSIFICATION_TYPE": "U", "NORAD_CAT_ID": 32711, "ELEMENT_SET_NO": 999, "REV_AT_EPOCH": 13025, "BSTAR": 0, "MEAN_MOTION_DOT": 9.3e-07, "MEAN_MOTION_DDOT": 0}, "tle": {"line1": "1 32711U 08012A   25358.63948241  .00000093  00000+0  00000+0 0  9995", "line2": "2 32711  54.4784 156.8980 0202974 245.0885 112.7759  2.00566104130258"}}, "geometry": {"type": "Point", "coordinates": [-60.37447396418387, 40.268431298892445]}}, {"type": "Feature", "properties": {"norad_id": 35752, "name": "GPS BIIRM-8 (PRN 05)", "group": "gps-ops", "lat": 24.653699710467585, "lon": -163.6673619191708, "alt_km": 20127.307753926285, "timestamp": "2025-12-25T07:41:09.981954+00:00", "meta": {"OBJECT_NAME": "GPS BIIRM-8 (PRN 05)", "OBJECT_ID": "2009-043A", "EPOCH": "2025-12-24T04:14:37.985856", "MEAN_MOTION": 2.00564964, "ECCENTRICITY": 0.00515883, "INCLINATION": 56.0988, "RA_OF_ASC_NODE": 34.3322, "ARG_OF_PERICENTER": 81.7352, "MEAN_ANOMALY": 321.9432, "EPHEMERIS_TYPE": 0, "CLASSIFICATION_TYPE": "U", "NORAD_CAT_ID": 35752, "ELEMENT_SET_NO": 999, "REV_AT_EPOCH": 11985, "BSTAR": 0, "MEAN_MOTION_DOT": -5.1e-07, "MEAN_MOTION_DDOT": 0}, "tle": {"line1": "1 35752U 09043A   25358.17682854 -.00000051  00000+0  00000+0 0  9997", "line2": "2 35752  56.0988  34.3322 0051588  81.7352 321.9432  2.00564964119854"}}, "geometry": {"type": "Point", "coordinates": [-163.6673619191708, 24.653699710467585]}}, {"type": "Feature", "properties": {"norad_id": 36585, "name": "GPS BIIF-1  (PRN 25)", "group": "gps-ops", "lat": -54.146708284725946, "lon": 119.88290414318567, "alt_km": 20501.405437175843, "timestamp": "2025-12-25T07:41:09.981966+00:00", "meta": {"OBJECT_NAME": "GPS BIIF-1  (PRN 25)", "OBJECT_ID": "2010-022A", "EPOCH": "2025-12-24T05:28:23.943360", "MEAN_MOTION": 2.00553772, "ECCENTRICITY": 0.01265509, "INCLINATION": 54.2984, "RA_OF_ASC_NODE": 215.6106, "ARG_OF_PERICENTER": 65.2201, "MEAN_ANOMALY": 133.4406, "EPHEMERIS_TYPE": 0, "CLASSIFICATION_TYPE": "U", "NORAD_CAT_ID": 36585, "ELEMENT_SET_NO": 999, "REV_AT_EPOCH": 11408, "BSTAR": 0, "MEAN_MOTION_DOT": 7.3e-07, "MEAN_MOTION_DDOT": 0}, "tle": {"line1": "1 36585U 10022A   25358.22805490  .00000073  00000+0  00000+0 0  9993", "line2": "2 36585  54.2984 215.6106 0126550  65.2201 133.4406  2.00553772114083"}}, "geometry": {"type": "Point", "coordinates": [119.88290414318567, -54.146708284725946]}}, {"type": "Feature", "properties": {"norad_id": 38833, "name": "GPS BIIF-3  (PRN 24)", "group": "gps-ops", "lat": 2.836910716241835, "lon": 152.8107819114373, "alt_km": 19946.710590178653, "timestamp": "2025-12-25T07:41:09.981977+00:00", "meta": {"OBJECT_NAME": "GPS BIIF-3  (PRN 24)", "OBJECT_ID": "2012-053A", "EPOCH": "2025-12-24T07:38:21.199488", "MEAN_MOTION": 2.00565058, "ECCENTRICITY": 0.01760755, "INCLINATION": 53.5598, "RA_OF_ASC_NODE": 150.7645, "ARG_OF_PERICENTER": 64.1634, "MEAN_ANOMALY": 297.6191, "EPHEMERIS_TYPE": 0, "CLASSIFICATION_TYPE": "U", "NORAD_CAT_ID": 38833, "ELEMENT_SET_NO": 999, "REV_AT_EPOCH": 9593, "BSTAR": 0, "MEAN_MOTION_DOT": 8.3e-07, "MEAN_MOTION_DDOT": 0}, "tle": {"line1": "1 38833U 12053A   25358.31830092  .00000083  00000+0  00000+0 0  9994", "line2": "2 38833  53.5598 150.7645 0176075  64.1634 297.6191  2.00565058 95932"}}, "geometry": {"type": "Point", "coordinates": [152.8107819114373, 2.836910716241835]}}, {"type": "Feature", "properties": {"norad_id": 39166, "name": "GPS BIIF-4  (PRN 27)", "group": "gps-ops", "lat": 52.30680071699412, "lon": 29.463005993347313, "alt_km": 19963.237091748528, "timestamp": "2025-12-25T07:41:09.981988+00:00", "meta": {"OBJECT_NAME": "GPS BIIF-4  (PRN 27)", "OBJECT_ID": "2013-023A", "EPOCH": "2025-12-24T04:22:45.402816", "MEAN_MOTION": 2.00564584, "ECCENTRICITY": 0.01386043, "INCLINATION": 54.6422, "RA_OF_ASC_NODE": 276.1031, "ARG_OF_PERICENTER": 48.7593, "MEAN_ANOMALY": 312.474, "EPHEMERIS_TYPE": 0, "CLASSIFICATION_TYPE": "U", "NORAD_CAT_ID": 39166, "ELEMENT_SET_NO": 999, "REV_AT_EPOCH": 9237, "BSTAR": 0, "MEAN_MOTION_DOT": -1.6e-07, "MEAN_MOTION_DDOT": 0}, "tle": {"line1": "1 39166U 13023A   25358.18246994 -.00000016  00000+0  00000+0 0  9996", "line2": "2 39166  54.6422 276.1031 0138604  48.7593 312.4740  2.00564584 92374"}}, "geometry": {"type": "Point", "coordinates": [29.463005993347313, 52.30680071699412]}}, {"type": "Feature", "properties": {"norad_id": 39533, "name": "GPS BIIF-5  (PRN 30)", "group": "gps-ops", "lat": 51.253052052033304, "lon": -90.4121107399043, "alt_km": 20287.129472045566, "timestamp": "2025-12-25T07:41:09.981999+00:00", "meta": {"OBJECT_NAME": "GPS BIIF-5  (PRN 30)", "OBJECT_ID": "2014-008A", "EPOCH": "2025-12-23T16:16:25.020768", "MEAN_MOTION": 2.00548852, "ECCENTRICITY": 0.00795532, "INCLINATION": 53.5993, "RA_OF_ASC_NODE": 156.4877, "ARG_OF_PERICENTER": 225.9161, "MEAN_ANOMALY": 133.4108, "EPHEMERIS_TYPE": 0, "CLASSIFICATION_TYPE": "U", "NORAD_CAT_ID": 39533, "ELEMENT_SET_NO": 999, "REV_AT_EPOCH": 8616, "BSTAR": 0, "MEAN_MOTION_DOT": 8.2e-07, "MEAN_MOTION_DDOT": 0}, "tle": {"line1": "1 39533U 14008A   25357.67806737  .00000082  00000+0  00000+0 0  9990", "line2": "2 39533  53.5993 156.4877 0079553 225.9161 133.4108  2.00548852 86167"}}, "geometry": {"type": "Point", "coordinates": [-90.4121107399043, 51.253052052033304]}}, {"type": "Feature", "properties": {"norad_id": 39741, "name": "GPS BIIF-6  (PRN 06)", "group": "gps-ops", "lat": -55.38824221111187, "lon": -128.69023015007429, "alt_km": 20133.750111790636, "timestamp": "2025-12-25T07:41:09.982011+00:00", "meta": {"OBJECT_NAME": "GPS BIIF-6  (PRN 06)", "OBJECT_ID": "2014-026A", "EPOCH": "2025-12-23T23:04:28.197408", "MEAN_MOTION": 2.00560539, "ECCENTRICITY": 0.00394575, "INCLINATION": 56.5792, "RA_OF_ASC_NODE": 338.3401, "ARG_OF_PERICENTER": 319.314, "MEAN_ANOMALY": 40.3969, "EPHEMERIS_TYPE": 0, "CLASSIFICATION_TYPE": "U", "NORAD_CAT_ID": 39741, "ELEMENT_SET_NO": 999, "REV_AT_EPOCH": 8502, "BSTAR": 0, "MEAN_MOTION_DOT": -6e-07, "MEAN_MOTION_DDOT": 0}, "tle": {"line1": "1 39741U 14026A   25357.96143747 -.00000060  00000+0  00000+0 0  9995", "line2": "2 39741  56.5792 338.3401 0039457 319.3140  40.3969  2.00560539 85027"}}, "geometry": {"type": "Point", "coordinates": [-128.69023015007429, -55.38824221111187]}}, {"type": "Feature", "properties": {"norad_id": 40105, "name": "GPS BIIF-7  (PRN 09)", "group": "gps-ops", "lat": -15.711419504931547, "lon": -73.34691724065917, "alt_km": 20166.944719049643, "timestamp": "2025-12-25T07:41:09.982022+00:00", "meta": {"OBJECT_NAME": "GPS BIIF-7  (PRN 09)", "OBJECT_ID": "2014-045A", "EPOCH": "2025-12-23T13:11:32.096256", "MEAN_MOTION": 2.00573211, "ECCENTRICITY": 0.00324114, "INCLINATION": 55.2352, "RA_OF_ASC_NODE": 95.4677, "ARG_OF_PERICENTER": 120.1575, "MEAN_ANOMALY": 240.1743, "EPHEMERIS_TYPE": 0, "CLASSIFICATION_TYPE": "U", "NORAD_CAT_ID": 40105, "ELEMENT_SET_NO": 999, "REV_AT_EPOCH": 8255, "BSTAR": 0, "MEAN_MOTION_DOT": 8e-08, "MEAN_MOTION_DDOT": 0}, "tle": {"line1": "1 40105U 14045A   25357.54967704  .00000008  00000+0  00000+0 0  9994", "line2": "2 40105  55.2352  95.4677 0032411 120.1575 240.1743  2.00573211 82556"}}, "geometry": {"type": "Point", "coordinates": [-73.34691724065917, -15.711419504931547]}}, {"type": "Feature", "properties": {"norad_id": 40294, "name": "GPS BIIF-8  (PRN 03)", "group": "gps-ops", "lat": -53.39629529033675, "lon": -23.839281144910327, "alt_km": 20315.892668753055, "timestamp": "2025-12-25T07:41:09.982034+00:00", "meta": {"OBJECT_NAME": "GPS BIIF-8  (PRN 03)", "OBJECT_ID": "2014-068A", "EPOCH": "2025-12-23T10:16:22.808064", "MEAN_MOTION": 2.00565491, "ECCENTRICITY": 0.00608386, "INCLINATION": 56.8656, "RA_OF_ASC_NODE": 37.7327, "ARG_OF_PERICENTER": 68.9718, "MEAN_ANOMALY": 291.747, "EPHEMERIS_TYPE": 0, "CLASSIFICATION_TYPE": "U", "NORAD_CAT_ID": 40294, "ELEMENT_SET_NO": 999, "REV_AT_EPOCH": 8168, "BSTAR": 0, "MEAN_MOTION_DOT": -4.8e-07, "MEAN_MOTION_DDOT": 0}, "tle": {"line1": "1 40294U 14068A   25357.42804176 -.00000048  00000+0  00000+0 0  9993", "line2": "2 40294  56.8656  37.7327 0060838  68.9718 291.7470  2.00565491 81685"}}, "geometry": {"type": "Point", "coordinates": [-23.839281144910327, -53.39629529033675]}}]}